[{"OBJECT_NAME":"OBJECT H","OBJECT_ID":"2024-205H","EPOCH":"2026-03-09T23:10:36.271776","MEAN_MOTION":15.29110994,"ECCENTRICITY":0.00105089,"INCLINATION":97.4168,"RA_OF_ASC_NODE":147.1265,"ARG_OF_PERICENTER":38.7838,"MEAN_ANOMALY":321.4154,"EPHEMERIS_TYPE":0,"CLASSIFICATION_TYPE":"U","NORAD_CAT_ID":61901,"ELEMENT_SET_NO":999,"REV_AT_EPOCH":7354,"BSTAR":0.00059497566,"MEAN_MOTION_DOT":0.00016783,"MEAN_MOTION_DDOT":0},{"OBJECT_NAME":"STARLINK-35341","OBJECT_ID":"2025-232Y","EPOCH":"2026-03-09T12:11:41.288064","MEAN_MOTION":15.30238854,"ECCENTRICITY":0.00012331,"INCLINATION":53.159,"RA_OF_ASC_NODE":105.0333,"ARG_OF_PERICENTER":97.2152,"MEAN_ANOMALY":262.8989,"EPHEMERIS_TYPE":0,"CLASSIFICATION_TYPE":"U","NORAD_CAT_ID":66027,"ELEMENT_SET_NO":999,"REV_AT_EPOCH":2340,"BSTAR":0.00084236334,"MEAN_MOTION_DOT":0.00024702,"MEAN_MOTION_DDOT":0}]
